ALOS-4 (DAICHI-4)       
1 60182U 24123A   24232.56918192  .00005269  00000+0  71203-3 0  9990
2 60182  97.9222 328.3209 0001502  98.6228 261.5154 14.79467927  7311
